[{"OBJECT_NAME":"STARLINK-5993","OBJECT_ID":"2023-064B","EPOCH":"2026-03-09T15:20:28.247712","MEAN_MOTION":14.9832779,"ECCENTRICITY":0.0003151,"INCLINATION":70.0005,"RA_OF_ASC_NODE":144.7824,"ARG_OF_PERICENTER":270.3368,"MEAN_ANOMALY":89.743,"EPHEMERIS_TYPE":0,"CLASSIFICATION_TYPE":"U","NORAD_CAT_ID":56449,"ELEMENT_SET_NO":999,"REV_AT_EPOCH":15523,"BSTAR":5.2548e-5,"MEAN_MOTION_DOT":5.34e-6,"MEAN_MOTION_DDOT":0},{"OBJECT_NAME":"SITRO-AIS 13","OBJECT_ID":"2024-199J","EPOCH":"2026-03-09T21:50:28.432320","MEAN_MOTION":14.9731664,"ECCENTRICITY":0.00074694,"INCLINATION":97.3312,"RA_OF_ASC_NODE":274.5755,"ARG_OF_PERICENTER":53.5174,"MEAN_ANOMALY":306.6736,"EPHEMERIS_TYPE":0,"CLASSIFICATION_TYPE":"U","NORAD_CAT_ID":61743,"ELEMENT_SET_NO":999,"REV_AT_EPOCH":11713,"BSTAR":0.00039590089,"MEAN_MOTION_DOT":4.542e-5,"MEAN_MOTION_DDOT":0}]
